{
  "type": "FeatureCollection",
  "features": [
    {
      "type": "Feature",
      "geometry": {
        "type": "Point",
        "coordinates": [
          -70.7236075,
          19.47681309999999
        ]
      },
      "properties": {
        "name": "Policía Nacional (Ensanche Espaillat)",
        "address": "F7GG+PHC, Avenida Hispanoamericana, Santiago de los Caballeros",
        "place_id": "ChIJWT5lHQzGsY4Rv3WJ_i4PiFE",
        "types": [
          "police",
          "point_of_interest",
          "establishment"
        ],
        "poi_type": "police"
      }
    },
    {
      "type": "Feature",
      "geometry": {
        "type": "Point",
        "coordinates": [
          -70.7024613,
          19.4474841
        ]
      },
      "properties": {
        "name": "DIGESETT Santiago",
        "address": "C7WX+X2V, Calle Vicente Estrella, Santiago de los Caballeros",
        "place_id": "ChIJdwsG5FrPsY4RqfKd7QfhgmY",
        "types": [
          "police",
          "point_of_interest",
          "establishment"
        ],
        "poi_type": "police"
      }
    },
    {
      "type": "Feature",
      "geometry": {
        "type": "Point",
        "coordinates": [
          -70.6840027,
          19.4495941
        ]
      },
      "properties": {
        "name": "Estación de Policía Municipal",
        "address": "C8X8+R9Q, Autopista Juan Pablo Duarte, Santiago de los Caballeros",
        "place_id": "ChIJQc0TFaPPsY4ROlYwvs-rHXA",
        "types": [
          "police",
          "point_of_interest",
          "establishment"
        ],
        "poi_type": "police"
      }
    },
    {
      "type": "Feature",
      "geometry": {
        "type": "Point",
        "coordinates": [
          -70.6880635,
          19.4497224
        ]
      },
      "properties": {
        "name": "Centro del Automovilista",
        "address": "Calle A 1, Santiago de los Caballeros",
        "place_id": "ChIJ1zhWcmfPsY4Re0G-wBoqrxs",
        "types": [
          "insurance_agency",
          "courthouse",
          "police",
          "local_government_office",
          "point_of_interest",
          "establishment"
        ],
        "poi_type": "police"
      }
    },
    {
      "type": "Feature",
      "geometry": {
        "type": "Point",
        "coordinates": [
          -70.6963583,
          19.4485088
        ]
      },
      "properties": {
        "name": "Casa Del Conductor",
        "address": "Calle 16 de Agosto 5, 51000, Santiago de los Caballeros",
        "place_id": "ChIJAzYiVFzPsY4RKnzTR5gkdRo",
        "types": [
          "police",
          "point_of_interest",
          "establishment"
        ],
        "poi_type": "police"
      }
    },
    {
      "type": "Feature",
      "geometry": {
        "type": "Point",
        "coordinates": [
          -70.695615,
          19.4440735
        ]
      },
      "properties": {
        "name": "Destacamento de Policía El Ensueño",
        "address": "C8V3+JQC, Calle 17, Santiago de los Caballeros",
        "place_id": "ChIJy7_-CebPsY4R3mOHL3Io2ow",
        "types": [
          "police",
          "point_of_interest",
          "establishment"
        ],
        "poi_type": "police"
      }
    },
    {
      "type": "Feature",
      "geometry": {
        "type": "Point",
        "coordinates": [
          -70.68090480000001,
          19.4360487
        ]
      },
      "properties": {
        "name": "Destacamento policía Merelio Almonte",
        "address": "Parada 51 - Ruta HB, Avenida Menelio Almonte, Santiago de los Caballeros",
        "place_id": "ChIJLWNcpd_PsY4R9XJuQn6pUNU",
        "types": [
          "police",
          "point_of_interest",
          "establishment"
        ],
        "poi_type": "police"
      }
    },
    {
      "type": "Feature",
      "geometry": {
        "type": "Point",
        "coordinates": [
          -70.6961654,
          19.4633052
        ]
      },
      "properties": {
        "name": "Departamento Anti-Ruidos santiago",
        "address": "Avenida Bartolomé Colón 100, Santiago de los Caballeros",
        "place_id": "ChIJi80vSMvFsY4R6_BqNBXz404",
        "types": [
          "police",
          "point_of_interest",
          "establishment"
        ],
        "poi_type": "police"
      }
    },
    {
      "type": "Feature",
      "geometry": {
        "type": "Point",
        "coordinates": [
          -70.694931,
          19.4646246
        ]
      },
      "properties": {
        "name": "Dirección Regional Cibao Central Policia Nacional",
        "address": "Avenida Bartolomé Colón, Santiago de los Caballeros",
        "place_id": "ChIJrZmIGfPFsY4RSYn4tNXWuKA",
        "types": [
          "police",
          "point_of_interest",
          "establishment"
        ],
        "poi_type": "police"
      }
    },
    {
      "type": "Feature",
      "geometry": {
        "type": "Point",
        "coordinates": [
          -70.6963311,
          19.4635242
        ]
      },
      "properties": {
        "name": "Depto. Querellas PN",
        "address": "F873+CF3, Santiago de los Caballeros",
        "place_id": "ChIJByVemfPFsY4R-NGJKij3YDI",
        "types": [
          "police",
          "point_of_interest",
          "establishment"
        ],
        "poi_type": "police"
      }
    },
    {
      "type": "Feature",
      "geometry": {
        "type": "Point",
        "coordinates": [
          -70.7023598,
          19.4485579
        ]
      },
      "properties": {
        "name": "Cestur",
        "address": "C7XX+C3C, Santiago de los Caballeros",
        "place_id": "ChIJu8rOEmnPsY4R_sx9NdHL1eE",
        "types": [
          "police",
          "point_of_interest",
          "establishment"
        ],
        "poi_type": "police"
      }
    },
    {
      "type": "Feature",
      "geometry": {
        "type": "Point",
        "coordinates": [
          -70.69637709999999,
          19.46362269999999
        ]
      },
      "properties": {
        "name": "Base Policía Sgo- Denuncia y Querellas- Ministerio Público",
        "address": "F873+CCX, Avenida Bartolomé Colón, Santiago de los Caballeros",
        "place_id": "ChIJ91fDnfPFsY4Rpb9k4CuZeUA",
        "types": [
          "police",
          "point_of_interest",
          "establishment"
        ],
        "poi_type": "police"
      }
    },
    {
      "type": "Feature",
      "geometry": {
        "type": "Point",
        "coordinates": [
          -70.7025579,
          19.4527577
        ]
      },
      "properties": {
        "name": "ASOCIACION NACIONAL DE POLICIAS MUNICIPALES RESCATANDO VALORES ASONAPOMURES",
        "address": "San Luis 53, Santiago de los Caballeros",
        "place_id": "ChIJ4SEymlnPsY4RG4iMOxs6vAk",
        "types": [
          "police",
          "point_of_interest",
          "establishment"
        ],
        "poi_type": "police"
      }
    },
    {
      "type": "Feature",
      "geometry": {
        "type": "Point",
        "coordinates": [
          -70.6944042,
          19.4654972
        ]
      },
      "properties": {
        "name": "El Patio de Peñita",
        "address": "Avenida Bartolomé Colón, Santiago de los Caballeros",
        "place_id": "ChIJOWos2xnFsY4Rx37f15PqZHA",
        "types": [
          "police",
          "point_of_interest",
          "establishment"
        ],
        "poi_type": "police"
      }
    },
    {
      "type": "Feature",
      "geometry": {
        "type": "Point",
        "coordinates": [
          -70.7028311,
          19.4480519
        ]
      },
      "properties": {
        "name": "Dpto. Falsificaciones y Delitos Monetarios",
        "address": "C7XW+6VF, Santiago de los Caballeros",
        "place_id": "ChIJJdyj71rPsY4RyfY3VtsFbvM",
        "types": [
          "police",
          "point_of_interest",
          "establishment"
        ],
        "poi_type": "police"
      }
    },
    {
      "type": "Feature",
      "geometry": {
        "type": "Point",
        "coordinates": [
          -70.69480999999999,
          19.4655865
        ]
      },
      "properties": {
        "name": "Policia Nacional - Plan Piloto",
        "address": "F884+63P, Santiago de los Caballeros",
        "place_id": "ChIJ190Rn_PFsY4RI6Rbga5wtFE",
        "types": [
          "police",
          "point_of_interest",
          "establishment"
        ],
        "poi_type": "police"
      }
    },
    {
      "type": "Feature",
      "geometry": {
        "type": "Point",
        "coordinates": [
          -70.6955869,
          19.4650964
        ]
      },
      "properties": {
        "name": "G488607",
        "address": "F883+2QM, Avenida Bartolomé Colón, Santiago de los Caballeros",
        "place_id": "ChIJ4ddEAvPFsY4RIMUO2-jVvLQ",
        "types": [
          "police",
          "point_of_interest",
          "establishment"
        ],
        "poi_type": "police"
      }
    },
    {
      "type": "Feature",
      "geometry": {
        "type": "Point",
        "coordinates": [
          -70.6968735,
          19.4641099
        ]
      },
      "properties": {
        "name": "DICAT",
        "address": "F873+J7R, Avenida Bartolomé Colón, Santiago de los Caballeros",
        "place_id": "ChIJm3rmar3FsY4RLdlpwUF7vho",
        "types": [
          "police",
          "point_of_interest",
          "establishment"
        ],
        "poi_type": "police"
      }
    },
    {
      "type": "Feature",
      "geometry": {
        "type": "Point",
        "coordinates": [
          -70.69550269999999,
          19.4658943
        ]
      },
      "properties": {
        "name": "La torre de Policía",
        "address": "F883+CPG, Calle D, Santiago de los Caballeros",
        "place_id": "ChIJP5RmS1LFsY4R-E3EMPR27w8",
        "types": [
          "police",
          "point_of_interest",
          "establishment"
        ],
        "poi_type": "police"
      }
    },
    {
      "type": "Feature",
      "geometry": {
        "type": "Point",
        "coordinates": [
          -70.697699,
          19.4649457
        ]
      },
      "properties": {
        "name": "Delitos Contra la Propiedad",
        "address": "F872+XWF, J.M. Ravelo, Santiago de los Caballeros",
        "place_id": "ChIJsQUAyfPFsY4ROQf_yFjjsQw",
        "types": [
          "police",
          "point_of_interest",
          "establishment"
        ],
        "poi_type": "police"
      }
    },
    {
      "type": "Feature",
      "geometry": {
        "type": "Point",
        "coordinates": [
          -70.7042879,
          19.4616557
        ]
      },
      "properties": {
        "name": "Destacamento de Pueblo Nuevo",
        "address": "Avenida J. Armando Bermúdez 19, Santiago de los Caballeros",
        "place_id": "ChIJVU0lbvfFsY4RgmTQ5WwoRtY",
        "types": [
          "police",
          "point_of_interest",
          "establishment"
        ],
        "poi_type": "police"
      }
    },
    {
      "type": "Feature",
      "geometry": {
        "type": "Point",
        "coordinates": [
          -70.7098963,
          19.4544517
        ]
      },
      "properties": {
        "name": "Policía Plaza Valerio",
        "address": "Calle Santiago Rodríguez &, Santiago de los Caballeros",
        "place_id": "ChIJQ-FykVbPsY4RGXSAeu7Rhzw",
        "types": [
          "police",
          "point_of_interest",
          "establishment"
        ],
        "poi_type": "police"
      }
    },
    {
      "type": "Feature",
      "geometry": {
        "type": "Point",
        "coordinates": [
          -70.68926979999999,
          19.4188166
        ]
      },
      "properties": {
        "name": "Destacamento Policia de Pekín",
        "address": "Prox. Los Multi, Pekín, Avenida Los Jazmines 1, Santiago de los Caballeros",
        "place_id": "ChIJ2V1pCBnPsY4RkP22nBxnF78",
        "types": [
          "police",
          "point_of_interest",
          "establishment"
        ],
        "poi_type": "police"
      }
    },
    {
      "type": "Feature",
      "geometry": {
        "type": "Point",
        "coordinates": [
          -70.69962869999999,
          19.4212814
        ]
      },
      "properties": {
        "name": "Policía Nacional - Destacamento Los Jazmines",
        "address": "Avenida Yapur Dumit &, Santiago de los Caballeros",
        "place_id": "ChIJFZtcKz7PsY4RHlARrNEcexI",
        "types": [
          "police",
          "point_of_interest",
          "establishment"
        ],
        "poi_type": "police"
      }
    },
    {
      "type": "Feature",
      "geometry": {
        "type": "Point",
        "coordinates": [
          -70.7176419,
          19.4551538
        ]
      },
      "properties": {
        "name": "Destacamento Policial “ La Otra Banda, S-6.",
        "address": "F74J+3W9, Santiago de los Caballeros",
        "place_id": "ChIJcUbwOavIsY4RJOEHX2WzkJk",
        "types": [
          "police",
          "point_of_interest",
          "establishment"
        ],
        "poi_type": "police"
      }
    },
    {
      "type": "Feature",
      "geometry": {
        "type": "Point",
        "coordinates": [
          -70.716143,
          19.47213709999999
        ]
      },
      "properties": {
        "name": "Destacamento Policía Nacional, Ensanche Bermúdez",
        "address": "C-6 58-46, Santiago de los Caballeros",
        "place_id": "ChIJA3wVx0nFsY4RWaEwuSWFlhI",
        "types": [
          "police",
          "point_of_interest",
          "establishment"
        ],
        "poi_type": "police"
      }
    },
    {
      "type": "Feature",
      "geometry": {
        "type": "Point",
        "coordinates": [
          -70.70602029999999,
          19.4835276
        ]
      },
      "properties": {
        "name": "Policia Nacional Republica Dominicana",
        "address": "Dominican Republic",
        "place_id": "ChIJjwrs2NzFsY4ReqNbMU1aFWU",
        "types": [
          "police",
          "point_of_interest",
          "establishment"
        ],
        "poi_type": "police"
      }
    },
    {
      "type": "Feature",
      "geometry": {
        "type": "Point",
        "coordinates": [
          -70.7059917,
          19.4835577
        ]
      },
      "properties": {
        "name": "Destacamento de Camboya",
        "address": "F7MV+CJC, Santiago de los Caballeros",
        "place_id": "ChIJ77t5vBHFsY4RP8RkGbeMY1Y",
        "types": [
          "police",
          "point_of_interest",
          "establishment"
        ],
        "poi_type": "police"
      }
    },
    {
      "type": "Feature",
      "geometry": {
        "type": "Point",
        "coordinates": [
          -70.67129849999999,
          19.408943
        ]
      },
      "properties": {
        "name": "Policía Matanza",
        "address": "C85H+HFG, Carretera Matanza, Santiago de los Caballeros",
        "place_id": "ChIJFV9QBHLPsY4RN6jHZrA7aWE",
        "types": [
          "police",
          "point_of_interest",
          "establishment"
        ],
        "poi_type": "police"
      }
    },
    {
      "type": "Feature",
      "geometry": {
        "type": "Point",
        "coordinates": [
          -70.655348,
          19.4914036
        ]
      },
      "properties": {
        "name": "Cuartel Policia Nacional Gurabo",
        "address": "F8RV+HV6, Santiago de los Caballeros",
        "place_id": "ChIJQRl_bxvFsY4RTJDIkd06uQA",
        "types": [
          "police",
          "point_of_interest",
          "establishment"
        ],
        "poi_type": "police"
      }
    },
    {
      "type": "Feature",
      "geometry": {
        "type": "Point",
        "coordinates": [
          -70.7114895,
          19.4913815
        ]
      },
      "properties": {
        "name": "Supervisoria los Salados",
        "address": "F7RQ+HC2, Santiago de los Caballeros",
        "place_id": "ChIJe33GYZLFsY4RkejaMVbunn4",
        "types": [
          "police",
          "point_of_interest",
          "establishment"
        ],
        "poi_type": "police"
      }
    },
    {
      "type": "Feature",
      "geometry": {
        "type": "Point",
        "coordinates": [
          -70.63524249999999,
          19.4262449
        ]
      },
      "properties": {
        "name": "Cuartel Policial Las Palomas",
        "address": "C9G7+FWR, Santiago de los Caballeros",
        "place_id": "ChIJe90Hl8LPsY4RAMCmZdB9nBY",
        "types": [
          "police",
          "point_of_interest",
          "establishment"
        ],
        "poi_type": "police"
      }
    },
    {
      "type": "Feature",
      "geometry": {
        "type": "Point",
        "coordinates": [
          -70.7240511,
          19.4871616
        ]
      },
      "properties": {
        "name": "Ensanche Libertad Santiago National Police",
        "address": "F7PG+V98, Avenida Salvador Estrella Sadhalá, Santiago de los Caballeros",
        "place_id": "ChIJUYG363PGsY4RATweI1zRCoE",
        "types": [
          "police",
          "point_of_interest",
          "establishment"
        ],
        "poi_type": "police"
      }
    },
    {
      "type": "Feature",
      "geometry": {
        "type": "Point",
        "coordinates": [
          -70.6823327,
          19.3869135
        ]
      },
      "properties": {
        "name": "Destacamento de la PN (laguna prieta)",
        "address": "98P9+Q3, Santiago de los Caballeros",
        "place_id": "ChIJe5jeRjPPsY4RVzGwh4m1tYU",
        "types": [
          "police",
          "point_of_interest",
          "establishment"
        ],
        "poi_type": "police"
      }
    },
    {
      "type": "Feature",
      "geometry": {
        "type": "Point",
        "coordinates": [
          -70.740392,
          19.4848975
        ]
      },
      "properties": {
        "name": "Destacamento Policia Nacional Monte Rico los Multi",
        "address": "F7M5+XR5, Santiago de los Caballeros",
        "place_id": "ChIJS0QEzCPHsY4RE0GsQFWwvWI",
        "types": [
          "police",
          "point_of_interest",
          "establishment"
        ],
        "poi_type": "police"
      }
    },
    {
      "type": "Feature",
      "geometry": {
        "type": "Point",
        "coordinates": [
          -70.67974869999999,
          19.5166867
        ]
      },
      "properties": {
        "name": "Cuartel de Jacagua",
        "address": "Calle Flor de Gurabo",
        "place_id": "ChIJoZqVGmjFsY4RIgokjxCZZWg",
        "types": [
          "police",
          "point_of_interest",
          "establishment"
        ],
        "poi_type": "police"
      }
    },
    {
      "type": "Feature",
      "geometry": {
        "type": "Point",
        "coordinates": [
          -70.7483587,
          19.4845994
        ]
      },
      "properties": {
        "name": "Destacamento Cienfuegos",
        "address": "Sergio Hernandez, Santiago de los Caballeros",
        "place_id": "ChIJp2DnmTjGsY4Rtqf4eBbMmKQ",
        "types": [
          "police",
          "point_of_interest",
          "establishment"
        ],
        "poi_type": "police"
      }
    },
    {
      "type": "Feature",
      "geometry": {
        "type": "Point",
        "coordinates": [
          -70.6133741,
          19.4874729
        ]
      },
      "properties": {
        "name": "POLICE",
        "address": "F9PP+XMJ, Tamboril",
        "place_id": "ChIJCyYw09basY4RxW1RtdyKazs",
        "types": [
          "police",
          "point_of_interest",
          "establishment"
        ],
        "poi_type": "police"
      }
    },
    {
      "type": "Feature",
      "geometry": {
        "type": "Point",
        "coordinates": [
          -70.60095969999999,
          19.4313171
        ]
      },
      "properties": {
        "name": "Destacamento policía nacional",
        "address": "Calle Juan Goico Alix 15, Licey al Medio",
        "place_id": "ChIJ44C6BYXRsY4RVmUDOsawPhQ",
        "types": [
          "police",
          "point_of_interest",
          "establishment"
        ],
        "poi_type": "police"
      }
    },
    {
      "type": "Feature",
      "geometry": {
        "type": "Point",
        "coordinates": [
          -70.6006498,
          19.4312688
        ]
      },
      "properties": {
        "name": "Cuartel Policia Nacional Licey",
        "address": "C9JX+GP5, Calle Juan Goico Alix, Licey al Medio",
        "place_id": "ChIJfx6VCxPQsY4RBWg5OP3aqg4",
        "types": [
          "police",
          "point_of_interest",
          "establishment"
        ],
        "poi_type": "police"
      }
    },
    {
      "type": "Feature",
      "geometry": {
        "type": "Point",
        "coordinates": [
          -70.7800683,
          19.451005
        ]
      },
      "properties": {
        "name": "Cuartel de la Policía Nacional Hato del Yaque",
        "address": "F629+CX3, Avenida del Este, Hato Del Yaque",
        "place_id": "ChIJFTD8727IsY4RHPt-pOM1M9A",
        "types": [
          "police",
          "point_of_interest",
          "establishment"
        ],
        "poi_type": "police"
      }
    },
    {
      "type": "Feature",
      "geometry": {
        "type": "Point",
        "coordinates": [
          -70.7800872,
          19.4510322
        ]
      },
      "properties": {
        "name": "Destacamento de Hato del Yaque",
        "address": "F629+CX7, Hato del Yaque",
        "place_id": "ChIJj_OuiLjJsY4RnIdmMb4k5I4",
        "types": [
          "police",
          "point_of_interest",
          "establishment"
        ],
        "poi_type": "police"
      }
    },
    {
      "type": "Feature",
      "geometry": {
        "type": "Point",
        "coordinates": [
          -70.5840024,
          19.4756186
        ]
      },
      "properties": {
        "name": "CUARTEL POLICIA NACIONAL",
        "address": "FCG8+69X, Tamboril",
        "place_id": "ChIJlbDTNtLbsY4Rzg0pRfYrNeA",
        "types": [
          "police",
          "point_of_interest",
          "establishment"
        ],
        "poi_type": "police"
      }
    },
    {
      "type": "Feature",
      "geometry": {
        "type": "Point",
        "coordinates": [
          -70.7877606,
          19.4794081
        ]
      },
      "properties": {
        "name": "Policia Costado",
        "address": "F6H6+QV9, Batey Uno",
        "place_id": "ChIJiWz3osLHsY4RiwhCapaq0m8",
        "types": [
          "police",
          "point_of_interest",
          "establishment"
        ],
        "poi_type": "police"
      }
    },
    {
      "type": "Feature",
      "geometry": {
        "type": "Point",
        "coordinates": [
          -70.5909618,
          19.3716392
        ]
      },
      "properties": {
        "name": "DESTACAMENTO EL HIGUERITO",
        "address": "9CC5+MJ3, El Higüerito",
        "place_id": "ChIJfdSosZbRsY4RUU6h-O0ZElA",
        "types": [
          "police",
          "point_of_interest",
          "establishment"
        ],
        "poi_type": "police"
      }
    },
    {
      "type": "Feature",
      "geometry": {
        "type": "Point",
        "coordinates": [
          -70.7039704,
          19.328604
        ]
      },
      "properties": {
        "name": "Destacamento Policía Nacional Baitoa",
        "address": "87HW+CCR, Carretera Santiago-Baitoa, Baitoa",
        "place_id": "ChIJ4YkE6vLNsY4RkYAVjpQRY6g",
        "types": [
          "police",
          "point_of_interest",
          "establishment"
        ],
        "poi_type": "police"
      }
    },
    {
      "type": "Feature",
      "geometry": {
        "type": "Point",
        "coordinates": [
          -70.721874,
          19.3297711
        ]
      },
      "properties": {
        "name": "DESTACAMENTO PN LA ZANJA SABANA IGLESIA",
        "address": "87HH+W72, Unnamed Road, La Zanja",
        "place_id": "ChIJpZ2ZIkjLsY4RRRV6lM6GmH4",
        "types": [
          "police",
          "point_of_interest",
          "establishment"
        ],
        "poi_type": "police"
      }
    },
    {
      "type": "Feature",
      "geometry": {
        "type": "Point",
        "coordinates": [
          -70.8173241,
          19.4719273
        ]
      },
      "properties": {
        "name": "Estacion De Policia De La Canela",
        "address": "Calle Principal 82, La Canela",
        "place_id": "ChIJt0xLjgG4sY4RyHoZEZ7y_Os",
        "types": [
          "police",
          "point_of_interest",
          "establishment"
        ],
        "poi_type": "police"
      }
    },
    {
      "type": "Feature",
      "geometry": {
        "type": "Point",
        "coordinates": [
          -70.7871728,
          19.5388822
        ]
      },
      "properties": {
        "name": "Destacamento Policía Nacional",
        "address": "G6Q7+H44, Calle Alfonso Perozo, Villa González",
        "place_id": "ChIJS1HmZz_HsY4RGyRjvuhEh9w",
        "types": [
          "police",
          "point_of_interest",
          "establishment"
        ],
        "poi_type": "police"
      }
    }
  ]
}