{
  "type": "FeatureCollection",
  "features": [
    {
      "type": "Feature",
      "geometry": {
        "type": "Point",
        "coordinates": [
          -70.71594999999999,
          19.4745693
        ]
      },
      "properties": {
        "name": "Colegio Evangelico Efrain",
        "address": "F7FM+RJF, Calle 2, Santiago de los Caballeros",
        "place_id": "ChIJk8o6E-LFsY4RLjur4NeYc4I",
        "types": [
          "school",
          "point_of_interest",
          "establishment"
        ],
        "poi_type": "school"
      }
    },
    {
      "type": "Feature",
      "geometry": {
        "type": "Point",
        "coordinates": [
          -70.6615198,
          19.4618701
        ]
      },
      "properties": {
        "name": "Miguel De Cervantes Saavedra School",
        "address": "Calle 2, Santiago de los Caballeros",
        "place_id": "ChIJ_ShjNXrFsY4RpMhl8M0SrNE",
        "types": [
          "school",
          "point_of_interest",
          "establishment"
        ],
        "poi_type": "school"
      }
    },
    {
      "type": "Feature",
      "geometry": {
        "type": "Point",
        "coordinates": [
          -70.6535063,
          19.4625503
        ]
      },
      "properties": {
        "name": "Saint David School",
        "address": "Klm. 1 1/2, Carretera Don Pedro, Santiago de los Caballeros",
        "place_id": "ChIJNUskkGXFsY4RRjrIzljW4Bg",
        "types": [
          "school",
          "point_of_interest",
          "establishment"
        ],
        "poi_type": "school"
      }
    },
    {
      "type": "Feature",
      "geometry": {
        "type": "Point",
        "coordinates": [
          -70.6887106,
          19.4587403
        ]
      },
      "properties": {
        "name": "Instituto Evangelico",
        "address": "Avenida Juan Pablo Duarte 110, Santiago de los Caballeros",
        "place_id": "ChIJLSGbyIvFsY4RAWVKBqV_djI",
        "types": [
          "school",
          "point_of_interest",
          "establishment"
        ],
        "poi_type": "school"
      }
    },
    {
      "type": "Feature",
      "geometry": {
        "type": "Point",
        "coordinates": [
          -70.6862262,
          19.4356482
        ]
      },
      "properties": {
        "name": "Colegio San Agustin de Hipona (Agustiniano)",
        "address": "Avenida Menelio Almonte #25, Santiago de los Caballeros",
        "place_id": "ChIJ7fFBiGzPsY4REpjAY_95WQQ",
        "types": [
          "school",
          "point_of_interest",
          "establishment"
        ],
        "poi_type": "school"
      }
    },
    {
      "type": "Feature",
      "geometry": {
        "type": "Point",
        "coordinates": [
          -70.6871208,
          19.4454559
        ]
      },
      "properties": {
        "name": "Colegio Bautista de la Gracia",
        "address": "Calle F 8, Santiago de los Caballeros",
        "place_id": "ChIJcVvPCWbPsY4RNOxjMOH7x48",
        "types": [
          "school",
          "point_of_interest",
          "establishment"
        ],
        "poi_type": "school"
      }
    },
    {
      "type": "Feature",
      "geometry": {
        "type": "Point",
        "coordinates": [
          -70.6831857,
          19.4502601
        ]
      },
      "properties": {
        "name": "Colegio Santiago Apóstol",
        "address": "Paseo Brasil, Santiago de los Caballeros",
        "place_id": "ChIJzU_ZZGPPsY4RTCam24TghJs",
        "types": [
          "primary_school",
          "school",
          "point_of_interest",
          "establishment"
        ],
        "poi_type": "school"
      }
    },
    {
      "type": "Feature",
      "geometry": {
        "type": "Point",
        "coordinates": [
          -70.6947296,
          19.454619
        ]
      },
      "properties": {
        "name": "Sacred Heart College",
        "address": "F833+RPR, Avenida Juan Pablo Duarte 67, Santiago de los Caballeros",
        "place_id": "ChIJNSMyul_PsY4REcnm-XCLnJk",
        "types": [
          "school",
          "point_of_interest",
          "establishment"
        ],
        "poi_type": "school"
      }
    },
    {
      "type": "Feature",
      "geometry": {
        "type": "Point",
        "coordinates": [
          -70.7010724,
          19.4491453
        ]
      },
      "properties": {
        "name": "Escuela Experimental Emilio Prud'Homme",
        "address": "C7XX+MH3, Calle 16 de Agosto, Santiago de los Caballeros",
        "place_id": "ChIJLQ06plvPsY4RYqWuDcpbMzQ",
        "types": [
          "school",
          "point_of_interest",
          "establishment"
        ],
        "poi_type": "school"
      }
    },
    {
      "type": "Feature",
      "geometry": {
        "type": "Point",
        "coordinates": [
          -70.68151519999999,
          19.4479396
        ]
      },
      "properties": {
        "name": "Centro Bellarmino",
        "address": "C8X9+59H, Santiago de los Caballeros",
        "place_id": "ChIJaXhVyGTPsY4RQFgm3k0cTVU",
        "types": [
          "school",
          "point_of_interest",
          "establishment"
        ],
        "poi_type": "school"
      }
    },
    {
      "type": "Feature",
      "geometry": {
        "type": "Point",
        "coordinates": [
          -70.6857608,
          19.4484632
        ]
      },
      "properties": {
        "name": "B & J Wonderland Day Care",
        "address": "C/3 2, Santiago de los Caballeros",
        "place_id": "ChIJJc_hFGTPsY4RENOn9l-5sHs",
        "types": [
          "school",
          "point_of_interest",
          "establishment"
        ],
        "poi_type": "school"
      }
    },
    {
      "type": "Feature",
      "geometry": {
        "type": "Point",
        "coordinates": [
          -70.6782846,
          19.4547138
        ]
      },
      "properties": {
        "name": "Andarines Centro de Cuidados y Estimulación Temprana",
        "address": "Calle D, Santiago de los Caballeros",
        "place_id": "ChIJudfAPITFsY4RbNACfcisP0k",
        "types": [
          "school",
          "point_of_interest",
          "establishment"
        ],
        "poi_type": "school"
      }
    },
    {
      "type": "Feature",
      "geometry": {
        "type": "Point",
        "coordinates": [
          -70.6768398,
          19.4527836
        ]
      },
      "properties": {
        "name": "Estudio Dina de Educacion Musical",
        "address": "F83F+477, Calle 10, Santiago de los Caballeros",
        "place_id": "ChIJbwJBv33PsY4RZwJdI1VPRGc",
        "types": [
          "school",
          "point_of_interest",
          "establishment"
        ],
        "poi_type": "school"
      }
    },
    {
      "type": "Feature",
      "geometry": {
        "type": "Point",
        "coordinates": [
          -70.67203479999999,
          19.4478985
        ]
      },
      "properties": {
        "name": "Kinderlandia",
        "address": "C8XH+554, Santiago de los Caballeros",
        "place_id": "ChIJb0811njPsY4RDsAdQ8Gj0b0",
        "types": [
          "school",
          "point_of_interest",
          "establishment"
        ],
        "poi_type": "school"
      }
    },
    {
      "type": "Feature",
      "geometry": {
        "type": "Point",
        "coordinates": [
          -70.687358,
          19.4621876
        ]
      },
      "properties": {
        "name": "Capullo Centro De Estimulacion Y Pre-Escolar",
        "address": "Doctor Arturo Grullón 21, Santiago de los Caballeros",
        "place_id": "ChIJL-QnA4zFsY4R2KTed7JrUxw",
        "types": [
          "school",
          "point_of_interest",
          "establishment"
        ],
        "poi_type": "school"
      }
    },
    {
      "type": "Feature",
      "geometry": {
        "type": "Point",
        "coordinates": [
          -70.6972369,
          19.452572
        ]
      },
      "properties": {
        "name": "Teatro Utopía",
        "address": "Calle Independencia 25, Santiago de los Caballeros",
        "place_id": "ChIJ__CslF7PsY4RyQKRke7r_Rk",
        "types": [
          "school",
          "point_of_interest",
          "establishment"
        ],
        "poi_type": "school"
      }
    },
    {
      "type": "Feature",
      "geometry": {
        "type": "Point",
        "coordinates": [
          -70.66928589999999,
          19.4460387
        ]
      },
      "properties": {
        "name": "Montessori Garden",
        "address": "Calle 14, Santiago de los Caballeros",
        "place_id": "ChIJCUHdd4LPsY4R_EJQFD4Bz70",
        "types": [
          "school",
          "point_of_interest",
          "establishment"
        ],
        "poi_type": "school"
      }
    },
    {
      "type": "Feature",
      "geometry": {
        "type": "Point",
        "coordinates": [
          -70.69774009999999,
          19.4448982
        ]
      },
      "properties": {
        "name": "Black Sheep Flight Academy",
        "address": "Av Francia, plaza Alfredo, 2do nivel, el ensueño , Santiago de las caballeros, Santiago de los Caballeros",
        "place_id": "ChIJke4gSUPPsY4Rgw8VFeES2wI",
        "types": [
          "school",
          "point_of_interest",
          "establishment"
        ],
        "poi_type": "school"
      }
    },
    {
      "type": "Feature",
      "geometry": {
        "type": "Point",
        "coordinates": [
          -70.6770256,
          19.4659747
        ]
      },
      "properties": {
        "name": "Little Planet",
        "address": "Santiago de los Caballeros",
        "place_id": "ChIJF7pfy4TFsY4Rp7yqtto0u5o",
        "types": [
          "school",
          "point_of_interest",
          "establishment"
        ],
        "poi_type": "school"
      }
    },
    {
      "type": "Feature",
      "geometry": {
        "type": "Point",
        "coordinates": [
          -70.6911504,
          19.4334568
        ]
      },
      "properties": {
        "name": "Institute of Religion - The Church of Jesus Christ of Latter-day Saints",
        "address": "Avenida Salvador Estrella Sadhalá 10, Santiago de los Caballeros",
        "place_id": "ChIJoTGe5vTFsY4RiSpUdTiLOVw",
        "types": [
          "school",
          "point_of_interest",
          "establishment"
        ],
        "poi_type": "school"
      }
    },
    {
      "type": "Feature",
      "geometry": {
        "type": "Point",
        "coordinates": [
          -70.7387352,
          19.4831581
        ]
      },
      "properties": {
        "name": "Colegio Cristiano Amanecer",
        "address": "Espaillat 33, Santiago de los Caballeros",
        "place_id": "ChIJFfKPPhXGsY4REGFXGWKyhUE",
        "types": [
          "school",
          "point_of_interest",
          "establishment"
        ],
        "poi_type": "school"
      }
    },
    {
      "type": "Feature",
      "geometry": {
        "type": "Point",
        "coordinates": [
          -70.68195930000002,
          19.4281193
        ]
      },
      "properties": {
        "name": "Colegio Cardenal Beras",
        "address": "Calle Proyecto 5, Santiago de los Caballeros",
        "place_id": "ChIJrT1NbRLPsY4RKN3zNGKflu8",
        "types": [
          "school",
          "point_of_interest",
          "establishment"
        ],
        "poi_type": "school"
      }
    },
    {
      "type": "Feature",
      "geometry": {
        "type": "Point",
        "coordinates": [
          -70.6634134,
          19.4336426
        ]
      },
      "properties": {
        "name": "My Sweet Home School",
        "address": "Calle los Rosales 80, Santiago de los Caballeros",
        "place_id": "ChIJ2ZEV057PsY4RRFq9Ywn_o4Y",
        "types": [
          "primary_school",
          "school",
          "point_of_interest",
          "establishment"
        ],
        "poi_type": "school"
      }
    },
    {
      "type": "Feature",
      "geometry": {
        "type": "Point",
        "coordinates": [
          -70.66078879999999,
          19.4671856
        ]
      },
      "properties": {
        "name": "ODI Daycare and Preschool",
        "address": "F88Q+VMG, Santiago de los Caballeros",
        "place_id": "ChIJu-AXAnHFsY4R3Lm-C5p4oA8",
        "types": [
          "school",
          "point_of_interest",
          "establishment"
        ],
        "poi_type": "school"
      }
    },
    {
      "type": "Feature",
      "geometry": {
        "type": "Point",
        "coordinates": [
          -70.64968189999999,
          19.44958859999999
        ]
      },
      "properties": {
        "name": "Colegio Dominicano",
        "address": "Carr Santiago Licey Km 4 1/2, Los Laureles,, Santiago de los Caballeros",
        "place_id": "ChIJya1tSIrPsY4RflhwyyAjDsg",
        "types": [
          "school",
          "point_of_interest",
          "establishment"
        ],
        "poi_type": "school"
      }
    },
    {
      "type": "Feature",
      "geometry": {
        "type": "Point",
        "coordinates": [
          -70.6727111,
          19.4195452
        ]
      },
      "properties": {
        "name": "Colegio Intelecto",
        "address": "Calle Penetración 1 Urbanización Thomén, Santiago de los Caballeros",
        "place_id": "ChIJMXwYjWbPsY4R7STI6lMGQQA",
        "types": [
          "school",
          "point_of_interest",
          "establishment"
        ],
        "poi_type": "school"
      }
    },
    {
      "type": "Feature",
      "geometry": {
        "type": "Point",
        "coordinates": [
          -70.6460099,
          19.4567182
        ]
      },
      "properties": {
        "name": "Oasis Christian School",
        "address": "F943+MHQ, Calle Parada Vieja, Santiago de los Caballeros",
        "place_id": "ChIJByL3pWDFsY4RZbSR2I3BqE4",
        "types": [
          "school",
          "point_of_interest",
          "establishment"
        ],
        "poi_type": "school"
      }
    },
    {
      "type": "Feature",
      "geometry": {
        "type": "Point",
        "coordinates": [
          -70.6483815,
          19.4281026
        ]
      },
      "properties": {
        "name": "Colegio Caminito de Jesús",
        "address": "C9H2+6JX, Santiago de los Caballeros",
        "place_id": "ChIJF5zQ0r_PsY4Rd8yzQA5WPKc",
        "types": [
          "school",
          "point_of_interest",
          "establishment"
        ],
        "poi_type": "school"
      }
    },
    {
      "type": "Feature",
      "geometry": {
        "type": "Point",
        "coordinates": [
          -70.6417714,
          19.4597956
        ]
      },
      "properties": {
        "name": "Esc: Rafael Maria Peralta Sosa",
        "address": "Callejón Los Peraltas, Santiago de los Caballeros",
        "place_id": "ChIJb4OSqF3FsY4RKw8Zc0TMtJU",
        "types": [
          "primary_school",
          "school",
          "point_of_interest",
          "establishment"
        ],
        "poi_type": "school"
      }
    },
    {
      "type": "Feature",
      "geometry": {
        "type": "Point",
        "coordinates": [
          -70.6506491,
          19.4795124
        ]
      },
      "properties": {
        "name": "Instituto Iberia",
        "address": "José Jiménez Miralles 12, Santiago de los Caballeros",
        "place_id": "ChIJxWuCGxTFsY4RMophi7xFMpA",
        "types": [
          "school",
          "point_of_interest",
          "establishment"
        ],
        "poi_type": "school"
      }
    },
    {
      "type": "Feature",
      "geometry": {
        "type": "Point",
        "coordinates": [
          -70.71799539999999,
          19.4776632
        ]
      },
      "properties": {
        "name": "Travesuras Club de Aprendizaje",
        "address": "Calle D, Santiago de los Caballeros",
        "place_id": "ChIJd7EWEgrGsY4RkLj_iLCD6hw",
        "types": [
          "school",
          "point_of_interest",
          "establishment"
        ],
        "poi_type": "school"
      }
    },
    {
      "type": "Feature",
      "geometry": {
        "type": "Point",
        "coordinates": [
          -70.6835535,
          19.4065601
        ]
      },
      "properties": {
        "name": "Escuela Basica Prof Venecia Cepeda",
        "address": "C848+JHG, Santiago de los Caballeros",
        "place_id": "ChIJgfvhBePOsY4Rmoc45N0f6YM",
        "types": [
          "school",
          "point_of_interest",
          "establishment"
        ],
        "poi_type": "school"
      }
    },
    {
      "type": "Feature",
      "geometry": {
        "type": "Point",
        "coordinates": [
          -70.7149395,
          19.4862704
        ]
      },
      "properties": {
        "name": "Centro Educativo Quisqueya de Santiago, CEQUISA",
        "address": "Calle 9 5, Santiago de los Caballeros",
        "place_id": "ChIJR2XiO9_FsY4RJLO_rrE-I04",
        "types": [
          "school",
          "point_of_interest",
          "establishment"
        ],
        "poi_type": "school"
      }
    },
    {
      "type": "Feature",
      "geometry": {
        "type": "Point",
        "coordinates": [
          -70.70657849999999,
          19.4951127
        ]
      },
      "properties": {
        "name": "Colegio Fausto Jiménez",
        "address": "F7WV+29V, Calle Penetracion, Santiago de los Caballeros",
        "place_id": "ChIJh50ostHFsY4Rgtb23WHkQJE",
        "types": [
          "school",
          "point_of_interest",
          "establishment"
        ],
        "poi_type": "school"
      }
    },
    {
      "type": "Feature",
      "geometry": {
        "type": "Point",
        "coordinates": [
          -70.58781909999999,
          19.4233501
        ]
      },
      "properties": {
        "name": "Escuela Primaria Ramón Antonio Rodríguez Cruz",
        "address": "CCF6+8VV",
        "place_id": "ChIJo09JP2jQsY4RIS-ftKja1co",
        "types": [
          "primary_school",
          "school",
          "point_of_interest",
          "establishment"
        ],
        "poi_type": "school"
      }
    },
    {
      "type": "Feature",
      "geometry": {
        "type": "Point",
        "coordinates": [
          -70.5705156,
          19.4487375
        ]
      },
      "properties": {
        "name": "Escuela Primaria Onesimo Polanco",
        "address": "CCXH+FQX, San Victor",
        "place_id": "ChIJpflOKHzasY4RoWowUFFInZI",
        "types": [
          "primary_school",
          "school",
          "point_of_interest",
          "establishment"
        ],
        "poi_type": "school"
      }
    },
    {
      "type": "Feature",
      "geometry": {
        "type": "Point",
        "coordinates": [
          -70.6012283,
          19.3761373
        ]
      },
      "properties": {
        "name": "Escuela Primaria Ortega",
        "address": "99GX+FG2, Ortega",
        "place_id": "ChIJtQ-qXurRsY4RCf4UBCYVhcQ",
        "types": [
          "primary_school",
          "school",
          "point_of_interest",
          "establishment"
        ],
        "poi_type": "school"
      }
    },
    {
      "type": "Feature",
      "geometry": {
        "type": "Point",
        "coordinates": [
          -70.5805386,
          19.3970396
        ]
      },
      "properties": {
        "name": "Escuela Primaria María Elena Méndez",
        "address": "9CW9+RQ8, Calle Imbert, Monte de la Jagua",
        "place_id": "ChIJq3hHNKvRsY4RDSB6NrRmtuw",
        "types": [
          "primary_school",
          "school",
          "point_of_interest",
          "establishment"
        ],
        "poi_type": "school"
      }
    },
    {
      "type": "Feature",
      "geometry": {
        "type": "Point",
        "coordinates": [
          -70.56659669999999,
          19.4619857
        ]
      },
      "properties": {
        "name": "Escuela Básica Rural Luis Napoleón Núñez Molina",
        "address": "Escuela Luis Napoleón Nuñez Molina, Moca",
        "place_id": "ChIJvVJO52basY4RJT4-riF4xxk",
        "types": [
          "primary_school",
          "school",
          "point_of_interest",
          "establishment"
        ],
        "poi_type": "school"
      }
    },
    {
      "type": "Feature",
      "geometry": {
        "type": "Point",
        "coordinates": [
          -70.5922858,
          19.3725294
        ]
      },
      "properties": {
        "name": "Liceo Secundario Aquilina de Jesus Ovalles-PREPARA",
        "address": "9CF5+238, El Higüerito",
        "place_id": "ChIJeX02H5TRsY4R1pt5YQru504",
        "types": [
          "school",
          "point_of_interest",
          "establishment"
        ],
        "poi_type": "school"
      }
    },
    {
      "type": "Feature",
      "geometry": {
        "type": "Point",
        "coordinates": [
          -70.5624602,
          19.42288
        ]
      },
      "properties": {
        "name": "Escuela Básica Pedro Nolasco Núñez",
        "address": "",
        "place_id": "ChIJfUKniI3QsY4RATv6f2y3hm8",
        "types": [
          "primary_school",
          "school",
          "point_of_interest",
          "establishment"
        ],
        "poi_type": "school"
      }
    },
    {
      "type": "Feature",
      "geometry": {
        "type": "Point",
        "coordinates": [
          -70.5586009,
          19.4204209
        ]
      },
      "properties": {
        "name": "Escuela Basica San Francisco Abajo",
        "address": "CCCR+5H6, Moca",
        "place_id": "ChIJj-dUGJPQsY4R9ZgAd669nos",
        "types": [
          "primary_school",
          "school",
          "point_of_interest",
          "establishment"
        ],
        "poi_type": "school"
      }
    },
    {
      "type": "Feature",
      "geometry": {
        "type": "Point",
        "coordinates": [
          -70.57720259999999,
          19.3793075
        ]
      },
      "properties": {
        "name": "ESCUELA PRIMARIA TIERRA DURA",
        "address": "",
        "place_id": "ChIJ9zBTHqHRsY4R9MuqCFLsjQE",
        "types": [
          "primary_school",
          "school",
          "point_of_interest",
          "establishment"
        ],
        "poi_type": "school"
      }
    },
    {
      "type": "Feature",
      "geometry": {
        "type": "Point",
        "coordinates": [
          -70.78475060000001,
          19.5306963
        ]
      },
      "properties": {
        "name": "Project Mañana Private School & Nutrition Center",
        "address": "Calle Paeton 8, Villa González",
        "place_id": "ChIJbwqMXRTHsY4R_TUj5prkZMw",
        "types": [
          "school",
          "point_of_interest",
          "establishment"
        ],
        "poi_type": "school"
      }
    },
    {
      "type": "Feature",
      "geometry": {
        "type": "Point",
        "coordinates": [
          -70.5612447,
          19.4003473
        ]
      },
      "properties": {
        "name": "Escuela Primaria y básica Granada",
        "address": "CC2Q+4GJ, Monte de la Jagua",
        "place_id": "ChIJr32DN-PQsY4RE-d7y0Z0fEw",
        "types": [
          "primary_school",
          "school",
          "point_of_interest",
          "establishment"
        ],
        "poi_type": "school"
      }
    },
    {
      "type": "Feature",
      "geometry": {
        "type": "Point",
        "coordinates": [
          -70.6974643,
          19.4604559
        ]
      },
      "properties": {
        "name": "Ulises Francisco Espaillat Liceo",
        "address": "F863+52M, Santiago de los Caballeros",
        "place_id": "ChIJU8-OR_TFsY4RWCeriP8rhuU",
        "types": [
          "school",
          "point_of_interest",
          "establishment"
        ],
        "poi_type": "school"
      }
    },
    {
      "type": "Feature",
      "geometry": {
        "type": "Point",
        "coordinates": [
          -70.7013633,
          19.4151823
        ]
      },
      "properties": {
        "name": "Colegio Padre Emiliano Tardif",
        "address": "Calle 6 Vista Linda 49, Santiago de los Caballeros",
        "place_id": "ChIJKZam9ybPsY4R7zjl63mX05Y",
        "types": [
          "school",
          "point_of_interest",
          "establishment"
        ],
        "poi_type": "school"
      }
    },
    {
      "type": "Feature",
      "geometry": {
        "type": "Point",
        "coordinates": [
          -70.6926028,
          19.4573702
        ]
      },
      "properties": {
        "name": "Colegio La Salle",
        "address": "F855+443, Avenida Juan Pablo Duarte 88, Santiago de los Caballeros",
        "place_id": "ChIJ9yJNyorFsY4RElmDLY9G6Zo",
        "types": [
          "school",
          "point_of_interest",
          "establishment"
        ],
        "poi_type": "school"
      }
    },
    {
      "type": "Feature",
      "geometry": {
        "type": "Point",
        "coordinates": [
          -70.68436849999999,
          19.4270006
        ]
      },
      "properties": {
        "name": "Instituto Politecnico Industrial de Santiago",
        "address": "Avenida Circunvalación 468, Santiago de los Caballeros",
        "place_id": "ChIJe8nx1RPPsY4RT2SNHZNBxxM",
        "types": [
          "school",
          "point_of_interest",
          "establishment"
        ],
        "poi_type": "school"
      }
    },
    {
      "type": "Feature",
      "geometry": {
        "type": "Point",
        "coordinates": [
          -70.7077505,
          19.4403705
        ]
      },
      "properties": {
        "name": "Colegio Mizori",
        "address": "C7RR+4VX, Calle 4, Santiago de los Caballeros",
        "place_id": "ChIJFxoY10jPsY4RuR0egwyZgRs",
        "types": [
          "school",
          "point_of_interest",
          "establishment"
        ],
        "poi_type": "school"
      }
    },
    {
      "type": "Feature",
      "geometry": {
        "type": "Point",
        "coordinates": [
          -70.6839367,
          19.4512005
        ]
      },
      "properties": {
        "name": "Preescolar Tia Amelia",
        "address": "Calle Juan Lockward 3, Santiago de los Caballeros",
        "place_id": "ChIJ_wIw0svFsY4R6Ss0bYaIwQQ",
        "types": [
          "school",
          "point_of_interest",
          "establishment"
        ],
        "poi_type": "school"
      }
    },
    {
      "type": "Feature",
      "geometry": {
        "type": "Point",
        "coordinates": [
          -70.6854862,
          19.4483734
        ]
      },
      "properties": {
        "name": "CEINB TRINIDAD COROMOTO SANCHEZ DIAZ",
        "address": "A8 cruce con A15, Calle & Calle 3, Santiago de los Caballeros",
        "place_id": "ChIJkRE6QGTPsY4Rjh52ifsl-tc",
        "types": [
          "school",
          "point_of_interest",
          "establishment"
        ],
        "poi_type": "school"
      }
    },
    {
      "type": "Feature",
      "geometry": {
        "type": "Point",
        "coordinates": [
          -70.68721699999999,
          19.4506505
        ]
      },
      "properties": {
        "name": "Preescolar Nido",
        "address": "Avenida Juan Pablo Duarte Esq, Santiago de los Caballeros",
        "place_id": "ChIJoyoEpc3PsY4RL-y1pweEn2E",
        "types": [
          "school",
          "point_of_interest",
          "establishment"
        ],
        "poi_type": "school"
      }
    },
    {
      "type": "Feature",
      "geometry": {
        "type": "Point",
        "coordinates": [
          -70.6820781,
          19.4548097
        ]
      },
      "properties": {
        "name": "Surya Salud Holística",
        "address": "Calle Ponce, Santiago de los Caballeros",
        "place_id": "ChIJkYYG5eTPsY4RrA_LsLXXicE",
        "types": [
          "gym",
          "school",
          "health",
          "point_of_interest",
          "establishment"
        ],
        "poi_type": "school"
      }
    },
    {
      "type": "Feature",
      "geometry": {
        "type": "Point",
        "coordinates": [
          -70.6826091,
          19.4559155
        ]
      },
      "properties": {
        "name": "takethisredguitar",
        "address": "51000, Santiago de los Caballeros",
        "place_id": "ChIJA4Ud1zjFsY4Rs_biC766kW4",
        "types": [
          "school",
          "point_of_interest",
          "establishment"
        ],
        "poi_type": "school"
      }
    },
    {
      "type": "Feature",
      "geometry": {
        "type": "Point",
        "coordinates": [
          -70.6772986,
          19.4518414
        ]
      },
      "properties": {
        "name": "Centro Educativo Ms. Núñez Santiago",
        "address": "Calle Radhamés Gómez Pepín 2, Santiago de los Caballeros",
        "place_id": "ChIJ8zbVDJHPsY4RIsHaSCwhEcU",
        "types": [
          "school",
          "point_of_interest",
          "establishment"
        ],
        "poi_type": "school"
      }
    },
    {
      "type": "Feature",
      "geometry": {
        "type": "Point",
        "coordinates": [
          -70.67684690000002,
          19.4518004
        ]
      },
      "properties": {
        "name": "Tiny Seeds",
        "address": "Calle Radhamés Gómez Pepín 9, Santiago de los Caballeros",
        "place_id": "ChIJY_y5FgDPsY4R7yM6SsHJ-gM",
        "types": [
          "school",
          "point_of_interest",
          "establishment"
        ],
        "poi_type": "school"
      }
    },
    {
      "type": "Feature",
      "geometry": {
        "type": "Point",
        "coordinates": [
          -70.6829928,
          19.4567654
        ]
      },
      "properties": {
        "name": "Colegio Padre Fortin",
        "address": "F848+PR2, Avenida Juan Pablo Duarte, Santiago de los Caballeros",
        "place_id": "ChIJT4xwZ4jFsY4RmU9lY4VKHng",
        "types": [
          "school",
          "point_of_interest",
          "establishment"
        ],
        "poi_type": "school"
      }
    },
    {
      "type": "Feature",
      "geometry": {
        "type": "Point",
        "coordinates": [
          -70.678626,
          19.4557652
        ]
      },
      "properties": {
        "name": "Colegio Hispanoamericano",
        "address": "51000, Santiago de los Caballeros",
        "place_id": "ChIJ1XSWz4fFsY4R3QVYs6PI0EY",
        "types": [
          "school",
          "point_of_interest",
          "establishment"
        ],
        "poi_type": "school"
      }
    },
    {
      "type": "Feature",
      "geometry": {
        "type": "Point",
        "coordinates": [
          -70.68364729999999,
          19.457296
        ]
      },
      "properties": {
        "name": "Hogar Azul",
        "address": "Calle Pedro Rodríguez 7, Santiago de los Caballeros",
        "place_id": "ChIJqSpDDNnFsY4RmtnS0PngET4",
        "types": [
          "school",
          "point_of_interest",
          "establishment"
        ],
        "poi_type": "school"
      }
    }
  ]
}