{
  "type": "FeatureCollection",
  "features": [
    {
      "type": "Feature",
      "geometry": {
        "type": "Point",
        "coordinates": [
          -70.6963724,
          19.4261633
        ]
      },
      "properties": {
        "name": "Yapur Dumit Bridge Ave.",
        "address": null,
        "place_id": "ChIJZ64PTjzPsY4R6i-eQiTfsCc",
        "types": [
          "point_of_interest",
          "establishment"
        ],
        "poi_type": "bridge"
      }
    },
    {
      "type": "Feature",
      "geometry": {
        "type": "Point",
        "coordinates": [
          -70.70844,
          19.4480355
        ]
      },
      "properties": {
        "name": "Puente Hermanos Patiño",
        "address": null,
        "place_id": "ChIJWdBr2lHPsY4R51vg_TFchng",
        "types": [
          "point_of_interest",
          "establishment"
        ],
        "poi_type": "bridge"
      }
    },
    {
      "type": "Feature",
      "geometry": {
        "type": "Point",
        "coordinates": [
          -70.71651609999999,
          19.4543833
        ]
      },
      "properties": {
        "name": "Puente Don Manuel de Js. De peña y Reynoso",
        "address": null,
        "place_id": "ChIJUbr1uVTPsY4RdF4txpOA2mY",
        "types": [
          "point_of_interest",
          "establishment"
        ],
        "poi_type": "bridge"
      }
    },
    {
      "type": "Feature",
      "geometry": {
        "type": "Point",
        "coordinates": [
          -70.71488939999999,
          19.4545765
        ]
      },
      "properties": {
        "name": "Puente peatonal la otra banda",
        "address": null,
        "place_id": "ChIJAapOC6DPsY4RBrF_ohjOnoQ",
        "types": [
          "point_of_interest",
          "establishment"
        ],
        "poi_type": "bridge"
      }
    },
    {
      "type": "Feature",
      "geometry": {
        "type": "Point",
        "coordinates": [
          -70.7319298,
          19.4862414
        ]
      },
      "properties": {
        "name": "Elevado de Cienfuegos",
        "address": null,
        "place_id": "ChIJPVdj_2zGsY4R49tmDcUMFds",
        "types": [
          "point_of_interest",
          "establishment"
        ],
        "poi_type": "bridge"
      }
    },
    {
      "type": "Feature",
      "geometry": {
        "type": "Point",
        "coordinates": [
          -70.6433686,
          19.4143614
        ]
      },
      "properties": {
        "name": "Puente secó canabacoa Av.circ y Aut. Duarte",
        "address": null,
        "place_id": "ChIJVS9VGwDPsY4RLsMtP09SWoE",
        "types": [
          "point_of_interest",
          "establishment"
        ],
        "poi_type": "bridge"
      }
    },
    {
      "type": "Feature",
      "geometry": {
        "type": "Point",
        "coordinates": [
          -70.7067703,
          19.4305886
        ]
      },
      "properties": {
        "name": "Puente pastor bella vista",
        "address": null,
        "place_id": "ChIJt2BUbiDPsY4RywLyaQKtKSQ",
        "types": [
          "point_of_interest",
          "establishment"
        ],
        "poi_type": "bridge"
      }
    },
    {
      "type": "Feature",
      "geometry": {
        "type": "Point",
        "coordinates": [
          -70.606045,
          19.3914072
        ]
      },
      "properties": {
        "name": "Puente Av. victor. M. Espaillat Río Colorado y licey",
        "address": null,
        "place_id": "ChIJgeLVZ_TRsY4RXQWPx_Hp5WI",
        "types": [
          "point_of_interest",
          "establishment"
        ],
        "poi_type": "bridge"
      }
    },
    {
      "type": "Feature",
      "geometry": {
        "type": "Point",
        "coordinates": [
          -70.7108181,
          19.4938191
        ]
      },
      "properties": {
        "name": "Puente Calle 3 Arroyo Piedra",
        "address": null,
        "place_id": "ChIJPW_AyxbFsY4RHtNOVTVjWSs",
        "types": [
          "point_of_interest",
          "establishment"
        ],
        "poi_type": "bridge"
      }
    },
    {
      "type": "Feature",
      "geometry": {
        "type": "Point",
        "coordinates": [
          -70.7152682,
          19.4545442
        ]
      },
      "properties": {
        "name": "Puente Peatonal La Joya",
        "address": null,
        "place_id": "ChIJY3vdSiTPsY4RMRv8tsixhW0",
        "types": [
          "point_of_interest",
          "establishment"
        ],
        "poi_type": "bridge"
      }
    },
    {
      "type": "Feature",
      "geometry": {
        "type": "Point",
        "coordinates": [
          -70.657298,
          19.505868
        ]
      },
      "properties": {
        "name": "Puente Carr.Sta.Rita la chichigua",
        "address": null,
        "place_id": "ChIJk32SwWTFsY4R947WPtnjGIM",
        "types": [
          "point_of_interest",
          "establishment"
        ],
        "poi_type": "bridge"
      }
    },
    {
      "type": "Feature",
      "geometry": {
        "type": "Point",
        "coordinates": [
          -70.7071512,
          19.4574491
        ]
      },
      "properties": {
        "name": "Puente secó calle González",
        "address": null,
        "place_id": "ChIJ19lJ8L7PsY4RgXB_hWlTxhE",
        "types": [
          "point_of_interest",
          "establishment"
        ],
        "poi_type": "bridge"
      }
    },
    {
      "type": "Feature",
      "geometry": {
        "type": "Point",
        "coordinates": [
          -70.7163247,
          19.4924214
        ]
      },
      "properties": {
        "name": "Puente Calle 15 Arroyo Piedra",
        "address": null,
        "place_id": "ChIJ0b4vxKzFsY4RjhxEsK8Dxlw",
        "types": [
          "point_of_interest",
          "establishment"
        ],
        "poi_type": "bridge"
      }
    },
    {
      "type": "Feature",
      "geometry": {
        "type": "Point",
        "coordinates": [
          -70.74885119999999,
          19.4907596
        ]
      },
      "properties": {
        "name": "Puente Conector Cienfuegos Con La Circunvalación Norte",
        "address": null,
        "place_id": "ChIJfZzVtPTHsY4Rtr-Das_e-fU",
        "types": [
          "point_of_interest",
          "establishment"
        ],
        "poi_type": "bridge"
      }
    },
    {
      "type": "Feature",
      "geometry": {
        "type": "Point",
        "coordinates": [
          -70.6979539,
          19.4290084
        ]
      },
      "properties": {
        "name": "Puente de Av. arroyo hondo cañada del Diablo",
        "address": null,
        "place_id": "ChIJdU0ncQHPsY4R38yDX4V1uPw",
        "types": [
          "point_of_interest",
          "establishment"
        ],
        "poi_type": "bridge"
      }
    },
    {
      "type": "Feature",
      "geometry": {
        "type": "Point",
        "coordinates": [
          -70.6343741,
          19.4976032
        ]
      },
      "properties": {
        "name": "Puente de la calle 7 de julio biojo tamboril",
        "address": null,
        "place_id": "ChIJpQ3bJl_FsY4RmAbOkyeymGM",
        "types": [
          "point_of_interest",
          "establishment"
        ],
        "poi_type": "bridge"
      }
    },
    {
      "type": "Feature",
      "geometry": {
        "type": "Point",
        "coordinates": [
          -70.7154694,
          19.4142542
        ]
      },
      "properties": {
        "name": "Puente Ercilia Pepín",
        "address": null,
        "place_id": "ChIJof5nMG7PsY4RRUgHnXjVXE0",
        "types": [
          "point_of_interest",
          "establishment"
        ],
        "poi_type": "bridge"
      }
    },
    {
      "type": "Feature",
      "geometry": {
        "type": "Point",
        "coordinates": [
          -70.7033689,
          19.4957608
        ]
      },
      "properties": {
        "name": "Puente del Arroyo Piedra Av Hatuey",
        "address": null,
        "place_id": "ChIJqXO1oz3FsY4R92ajLnFvr8E",
        "types": [
          "point_of_interest",
          "establishment"
        ],
        "poi_type": "bridge"
      }
    },
    {
      "type": "Feature",
      "geometry": {
        "type": "Point",
        "coordinates": [
          -70.6505593,
          19.5009422
        ]
      },
      "properties": {
        "name": "Puente. Calle Ulises. P. Río gurabo",
        "address": null,
        "place_id": "ChIJUyTuoOnFsY4R1gBCHaVWqbw",
        "types": [
          "point_of_interest",
          "establishment"
        ],
        "poi_type": "bridge"
      }
    },
    {
      "type": "Feature",
      "geometry": {
        "type": "Point",
        "coordinates": [
          -70.710979,
          19.4705467
        ]
      },
      "properties": {
        "name": "Puente de la Av Imbert (Arroyo Gurabo)",
        "address": null,
        "place_id": "ChIJx9I8LF7FsY4RPDGde7YdfkA",
        "types": [
          "point_of_interest",
          "establishment"
        ],
        "poi_type": "bridge"
      }
    }
  ]
}