{
  "type": "FeatureCollection",
  "features": [
    {
      "type": "Feature",
      "geometry": {
        "type": "Point",
        "coordinates": [
          -70.7080884,
          19.4534381
        ]
      },
      "properties": {
        "name": "Clínica Profamilia Rosa Cisneros",
        "address": "Calle Restauración No. 161, Santiago de los Caballeros",
        "place_id": "ChIJO3TK3lbPsY4ReeHcfHyV0uM",
        "types": [
          "hospital",
          "health",
          "point_of_interest",
          "establishment"
        ],
        "poi_type": "hospital"
      }
    },
    {
      "type": "Feature",
      "geometry": {
        "type": "Point",
        "coordinates": [
          -70.6835622,
          19.4572686
        ]
      },
      "properties": {
        "name": "IREGCI - Instituto de Reproducción y Ginecología del Cibao",
        "address": "Calle Pedro Rodríguez 7, Santiago de los Caballeros",
        "place_id": "ChIJeTwDT4jFsY4RclakbxBTeZI",
        "types": [
          "hospital",
          "health",
          "point_of_interest",
          "establishment"
        ],
        "poi_type": "hospital"
      }
    },
    {
      "type": "Feature",
      "geometry": {
        "type": "Point",
        "coordinates": [
          -70.68322909999999,
          19.457918
        ]
      },
      "properties": {
        "name": "Edificio Profesional Materno Infantil",
        "address": "F858+5P6, Calle Bisonó Toribio, Santiago de los Caballeros",
        "place_id": "ChIJdWrrWYjFsY4RWJectJZhz9A",
        "types": [
          "hospital",
          "health",
          "point_of_interest",
          "establishment"
        ],
        "poi_type": "hospital"
      }
    },
    {
      "type": "Feature",
      "geometry": {
        "type": "Point",
        "coordinates": [
          -70.6831444,
          19.45859
        ]
      },
      "properties": {
        "name": "Mother and Child Institute Santiago",
        "address": "F858+CPQ, Santiago de los Caballeros",
        "place_id": "ChIJRbA98YjFsY4RUA8A-AXFqeg",
        "types": [
          "hospital",
          "health",
          "point_of_interest",
          "establishment"
        ],
        "poi_type": "hospital"
      }
    },
    {
      "type": "Feature",
      "geometry": {
        "type": "Point",
        "coordinates": [
          -70.6894794,
          19.4622613
        ]
      },
      "properties": {
        "name": "Caribbean Laser Center",
        "address": "F866+W62, República del Líbano, Santiago de los Caballeros",
        "place_id": "ChIJlVOne4zFsY4RDcpYT4cPyvE",
        "types": [
          "hospital",
          "health",
          "point_of_interest",
          "establishment"
        ],
        "poi_type": "hospital"
      }
    },
    {
      "type": "Feature",
      "geometry": {
        "type": "Point",
        "coordinates": [
          -70.69169049999999,
          19.4631451
        ]
      },
      "properties": {
        "name": "Luna Vital",
        "address": "Calle 13, Santiago de los Caballeros",
        "place_id": "ChIJaSZivozFsY4RSUQr65ftdIg",
        "types": [
          "hospital",
          "health",
          "point_of_interest",
          "establishment"
        ],
        "poi_type": "hospital"
      }
    },
    {
      "type": "Feature",
      "geometry": {
        "type": "Point",
        "coordinates": [
          -70.6996042,
          19.4533395
        ]
      },
      "properties": {
        "name": "Centro Endoscopico de Santiago CENDOSA",
        "address": "Calle Cuba 112, Santiago de los Caballeros",
        "place_id": "ChIJcUB5QFnPsY4Rm7HCu4q8b8c",
        "types": [
          "hospital",
          "health",
          "point_of_interest",
          "establishment"
        ],
        "poi_type": "hospital"
      }
    },
    {
      "type": "Feature",
      "geometry": {
        "type": "Point",
        "coordinates": [
          -70.6993347,
          19.4553168
        ]
      },
      "properties": {
        "name": "Patronato Cibao de Rehabilitación",
        "address": "Calle Cuba, Santiago de los Caballeros",
        "place_id": "ChIJMVJWyVjPsY4Rfmt8bbfcpbE",
        "types": [
          "hospital",
          "health",
          "point_of_interest",
          "establishment"
        ],
        "poi_type": "hospital"
      }
    },
    {
      "type": "Feature",
      "geometry": {
        "type": "Point",
        "coordinates": [
          -70.7030347,
          19.4533762
        ]
      },
      "properties": {
        "name": "Dra. Rossanna Gonzalez P",
        "address": "Calle Independencia 124, Santiago de los Caballeros",
        "place_id": "ChIJJ5gzvFnPsY4R3x4twRtbch8",
        "types": [
          "hospital",
          "health",
          "point_of_interest",
          "establishment"
        ],
        "poi_type": "hospital"
      }
    },
    {
      "type": "Feature",
      "geometry": {
        "type": "Point",
        "coordinates": [
          -70.661554,
          19.4370066
        ]
      },
      "properties": {
        "name": "Centro de Cáncer HOMS",
        "address": "C8PQ+R94, Autopista Juan Pablo Duarte, Santiago de los Caballeros",
        "place_id": "ChIJ5e8u2ZvPsY4RRMH8MvcCEOw",
        "types": [
          "hospital",
          "health",
          "point_of_interest",
          "establishment"
        ],
        "poi_type": "hospital"
      }
    },
    {
      "type": "Feature",
      "geometry": {
        "type": "Point",
        "coordinates": [
          -70.6866261,
          19.4262037
        ]
      },
      "properties": {
        "name": "Centro Odontológico García Rodriguez",
        "address": "Calle esq. Anacaona 3C, Santiago de los Caballeros",
        "place_id": "ChIJzxGrTxHPsY4RDaOWYM6eIac",
        "types": [
          "hospital",
          "health",
          "point_of_interest",
          "establishment"
        ],
        "poi_type": "hospital"
      }
    },
    {
      "type": "Feature",
      "geometry": {
        "type": "Point",
        "coordinates": [
          -70.6610997,
          19.4361409
        ]
      },
      "properties": {
        "name": "Hospital Metropolitano de Santiago",
        "address": "Autopista Juan Pablo Duarte 2.8, Santiago de los Caballeros",
        "place_id": "ChIJI5s_opvPsY4RMAXbbRXCwb0",
        "types": [
          "hospital",
          "health",
          "point_of_interest",
          "establishment"
        ],
        "poi_type": "hospital"
      }
    },
    {
      "type": "Feature",
      "geometry": {
        "type": "Point",
        "coordinates": [
          -70.71109009999999,
          19.4674216
        ]
      },
      "properties": {
        "name": "Hospital Regional Presidente Estrella Ureña",
        "address": "F78Q+XH7, Avenida Imbert, Santiago de los Caballeros",
        "place_id": "ChIJaQOYffvFsY4R3RW98EmrRVs",
        "types": [
          "hospital",
          "health",
          "point_of_interest",
          "establishment"
        ],
        "poi_type": "hospital"
      }
    },
    {
      "type": "Feature",
      "geometry": {
        "type": "Point",
        "coordinates": [
          -70.70737199999999,
          19.488858
        ]
      },
      "properties": {
        "name": "GMC GUZMAN MEDICAL CENTER",
        "address": "Carretera Jacagua 158, Santiago de los Caballeros",
        "place_id": "ChIJjU5fBNvFsY4RyeioabXgw2Q",
        "types": [
          "hospital",
          "health",
          "point_of_interest",
          "establishment"
        ],
        "poi_type": "hospital"
      }
    },
    {
      "type": "Feature",
      "geometry": {
        "type": "Point",
        "coordinates": [
          -70.6073677,
          19.3712208
        ]
      },
      "properties": {
        "name": "Prestadora de Servicios de Salud Preventis",
        "address": "Autopista Juan Pablo Duarte KM 13, Ortega",
        "place_id": "ChIJ7fanGe_RsY4RGAUl-EMQFeo",
        "types": [
          "hospital",
          "health",
          "point_of_interest",
          "establishment"
        ],
        "poi_type": "hospital"
      }
    },
    {
      "type": "Feature",
      "geometry": {
        "type": "Point",
        "coordinates": [
          -70.7016222,
          19.3278644
        ]
      },
      "properties": {
        "name": "Antonio Fernández Municipal Hospital",
        "address": "Hospital Antonio Fernández, Carretera Santiago-Baitoa, Baitoa",
        "place_id": "ChIJi-FwXmTMsY4R20wzrfBofY4",
        "types": [
          "hospital",
          "health",
          "point_of_interest",
          "establishment"
        ],
        "poi_type": "hospital"
      }
    },
    {
      "type": "Feature",
      "geometry": {
        "type": "Point",
        "coordinates": [
          -70.68019509999999,
          19.4597098
        ]
      },
      "properties": {
        "name": "Clínica Unión Medica del Norte",
        "address": "Avenida Juan Pablo Duarte 176, Santiago de los Caballeros",
        "place_id": "ChIJHXD8EIbFsY4RFsfPgffnT8s",
        "types": [
          "hospital",
          "health",
          "point_of_interest",
          "establishment"
        ],
        "poi_type": "hospital"
      }
    },
    {
      "type": "Feature",
      "geometry": {
        "type": "Point",
        "coordinates": [
          -70.6993464,
          19.4567793
        ]
      },
      "properties": {
        "name": "Hospital Jose Maria Cabral y Báez",
        "address": "Avenida 27 de Febrero, Santiago de los Caballeros",
        "place_id": "ChIJBXCWtljPsY4R9JzBxxX90so",
        "types": [
          "hospital",
          "health",
          "point_of_interest",
          "establishment"
        ],
        "poi_type": "hospital"
      }
    },
    {
      "type": "Feature",
      "geometry": {
        "type": "Point",
        "coordinates": [
          -70.6962186,
          19.4549585
        ]
      },
      "properties": {
        "name": "Cibao-UTESA Medical Center",
        "address": "F843+3G6, Avenida Juan Pablo Duarte 64, Santiago de los Caballeros",
        "place_id": "ChIJScaeDl_PsY4RdhEChWo8QK0",
        "types": [
          "hospital",
          "health",
          "point_of_interest",
          "establishment"
        ],
        "poi_type": "hospital"
      }
    },
    {
      "type": "Feature",
      "geometry": {
        "type": "Point",
        "coordinates": [
          -70.6966297,
          19.4577714
        ]
      },
      "properties": {
        "name": "Diagnosis - Imágenes Médicas y Laboratorio Clínico",
        "address": "Avenida 27 de Febrero, Santiago de los Caballeros",
        "place_id": "ChIJh_qam_XFsY4RdtCtQeLuIPs",
        "types": [
          "hospital",
          "health",
          "point_of_interest",
          "establishment"
        ],
        "poi_type": "hospital"
      }
    },
    {
      "type": "Feature",
      "geometry": {
        "type": "Point",
        "coordinates": [
          -70.70313999999999,
          19.453317
        ]
      },
      "properties": {
        "name": "Clínica Dr. Bonilla",
        "address": "Calle Independencia 124, Santiago de los Caballeros",
        "place_id": "ChIJf_YqvlnPsY4RWzKbbrGp0NE",
        "types": [
          "hospital",
          "health",
          "point_of_interest",
          "establishment"
        ],
        "poi_type": "hospital"
      }
    },
    {
      "type": "Feature",
      "geometry": {
        "type": "Point",
        "coordinates": [
          -70.68298349999999,
          19.4512424
        ]
      },
      "properties": {
        "name": "Psicologa Miguelina Lora",
        "address": "res, Marise La, Calle Juan Lockward 12, Santiago de los Caballeros",
        "place_id": "ChIJyQB7E2PPsY4RkCJOprnucO8",
        "types": [
          "hospital",
          "health",
          "point_of_interest",
          "establishment"
        ],
        "poi_type": "hospital"
      }
    },
    {
      "type": "Feature",
      "geometry": {
        "type": "Point",
        "coordinates": [
          -70.6836877,
          19.4514322
        ]
      },
      "properties": {
        "name": "Psicólogos Clínicos",
        "address": "res. Marisela, Calle Juan Lockward, Santiago de los Caballeros",
        "place_id": "ChIJC8HME2PPsY4RWPjSCpLZl4A",
        "types": [
          "hospital",
          "health",
          "point_of_interest",
          "establishment"
        ],
        "poi_type": "hospital"
      }
    },
    {
      "type": "Feature",
      "geometry": {
        "type": "Point",
        "coordinates": [
          -70.68187019999999,
          19.4547629
        ]
      },
      "properties": {
        "name": "La Rosaleda",
        "address": "F839+W72, Calle Ponce, Santiago de los Caballeros",
        "place_id": "ChIJcWc9pmLPsY4Rw5Kr60BCV5I",
        "types": [
          "hospital",
          "health",
          "point_of_interest",
          "establishment"
        ],
        "poi_type": "hospital"
      }
    },
    {
      "type": "Feature",
      "geometry": {
        "type": "Point",
        "coordinates": [
          -70.67940430000002,
          19.4537015
        ]
      },
      "properties": {
        "name": "Quálita - Radiología e Imágenes Dentales - Santiago de los Caballeros",
        "address": "Edificio Esencia, Local Comercial B, Licenciado Genaro Perez 52, Santiago de los Caballeros",
        "place_id": "ChIJu4J-rYPPsY4RAv1SF-2fpEU",
        "types": [
          "hospital",
          "health",
          "point_of_interest",
          "establishment"
        ],
        "poi_type": "hospital"
      }
    },
    {
      "type": "Feature",
      "geometry": {
        "type": "Point",
        "coordinates": [
          -70.6780812,
          19.4521134
        ]
      },
      "properties": {
        "name": "Buccal - Clinica Dental",
        "address": "Licenciado Genaro Perez, Santiago de los Caballeros",
        "place_id": "ChIJS1tUqn3PsY4RAAJfsLaFx08",
        "types": [
          "dentist",
          "hospital",
          "health",
          "point_of_interest",
          "establishment"
        ],
        "poi_type": "hospital"
      }
    },
    {
      "type": "Feature",
      "geometry": {
        "type": "Point",
        "coordinates": [
          -70.68781249999999,
          19.4565625
        ]
      },
      "properties": {
        "name": "Vacumed centro de vacunación",
        "address": "F846+JVM, Santiago de los Caballeros",
        "place_id": "ChIJp3MQdpfFsY4RV2xGl1h7XF0",
        "types": [
          "hospital",
          "health",
          "point_of_interest",
          "establishment"
        ],
        "poi_type": "hospital"
      }
    },
    {
      "type": "Feature",
      "geometry": {
        "type": "Point",
        "coordinates": [
          -70.68791809999999,
          19.4564919
        ]
      },
      "properties": {
        "name": "Instituto de Cirugia Oftalmologica y Maxilofacial - ICOM",
        "address": "F846+HRW, Santiago de los Caballeros",
        "place_id": "ChIJ837Q8sfFsY4RU-ZWwFnU2L4",
        "types": [
          "hospital",
          "health",
          "point_of_interest",
          "establishment"
        ],
        "poi_type": "hospital"
      }
    },
    {
      "type": "Feature",
      "geometry": {
        "type": "Point",
        "coordinates": [
          -70.6842281,
          19.4580057
        ]
      },
      "properties": {
        "name": "Consultorio Dr. Nicola Perrone Cirujando de Columna",
        "address": "Modulo B12, casi esq, Av. Juan Pablo Duarte Esquina Bisono Toribio, Plaza, Santiago de los Caballeros",
        "place_id": "ChIJc-imBknFsY4RaFp8hTQw6GE",
        "types": [
          "hospital",
          "health",
          "point_of_interest",
          "establishment"
        ],
        "poi_type": "hospital"
      }
    },
    {
      "type": "Feature",
      "geometry": {
        "type": "Point",
        "coordinates": [
          -70.6842281,
          19.4580057
        ]
      },
      "properties": {
        "name": "Dra. Yubelkis Almonte , Ginecóloga obstetra",
        "address": "casi esq, Avenida Juan Pablo Duarte, Santiago de los Caballeros",
        "place_id": "ChIJ_-2zBlrFsY4ROlwIBf2N_VY",
        "types": [
          "hospital",
          "health",
          "point_of_interest",
          "establishment"
        ],
        "poi_type": "hospital"
      }
    },
    {
      "type": "Feature",
      "geometry": {
        "type": "Point",
        "coordinates": [
          -70.68532309999999,
          19.4580552
        ]
      },
      "properties": {
        "name": "Ceri cardio",
        "address": "F857+6VF, Santiago de los Caballeros",
        "place_id": "ChIJlzBZhu7FsY4RinULjVvSU20",
        "types": [
          "hospital",
          "health",
          "point_of_interest",
          "establishment"
        ],
        "poi_type": "hospital"
      }
    },
    {
      "type": "Feature",
      "geometry": {
        "type": "Point",
        "coordinates": [
          -70.6839732,
          19.4585591
        ]
      },
      "properties": {
        "name": "Instituto Materno Infantil y Especialidades San Martin de Porres",
        "address": "F858+CPQ, Avenida Juan Pablo Duarte &, Santiago de los Caballeros",
        "place_id": "ChIJDTtV8IjFsY4R84RkWUteJE0",
        "types": [
          "hospital",
          "health",
          "point_of_interest",
          "establishment"
        ],
        "poi_type": "hospital"
      }
    },
    {
      "type": "Feature",
      "geometry": {
        "type": "Point",
        "coordinates": [
          -70.6803986,
          19.4584924
        ]
      },
      "properties": {
        "name": "Centro Clínico de Investigación en Gineco-Obstetricia (CCIGO)",
        "address": "Calle Puerto Rico 6, Santiago de los Caballeros",
        "place_id": "ChIJEU0g61rFsY4R-rBhaES0IeI",
        "types": [
          "hospital",
          "doctor",
          "health",
          "point_of_interest",
          "establishment"
        ],
        "poi_type": "hospital"
      }
    },
    {
      "type": "Feature",
      "geometry": {
        "type": "Point",
        "coordinates": [
          -70.687274,
          19.4580219
        ]
      },
      "properties": {
        "name": "Imagen Oral",
        "address": "Plaza Palermo, Avenida Juan Pablo Duarte, Santiago de los Caballeros",
        "place_id": "ChIJX45ZKIrFsY4Ri30TdPk8d64",
        "types": [
          "hospital",
          "health",
          "point_of_interest",
          "establishment"
        ],
        "poi_type": "hospital"
      }
    },
    {
      "type": "Feature",
      "geometry": {
        "type": "Point",
        "coordinates": [
          -70.6873328,
          19.4580563
        ]
      },
      "properties": {
        "name": "Centro de Medicina Materno Fetal",
        "address": "Plaza Palermo, Avenida Juan Pablo Duarte, Santiago de los Caballeros",
        "place_id": "ChIJVYrKgInFsY4RQExTIclBkKo",
        "types": [
          "hospital",
          "health",
          "point_of_interest",
          "establishment"
        ],
        "poi_type": "hospital"
      }
    },
    {
      "type": "Feature",
      "geometry": {
        "type": "Point",
        "coordinates": [
          -70.6806831,
          19.4592079
        ]
      },
      "properties": {
        "name": "Oncoserv",
        "address": "Avenida Juan Pablo Duarte 174, Santiago de los Caballeros",
        "place_id": "ChIJS8CSGIbFsY4RLLaMvlroP0c",
        "types": [
          "hospital",
          "health",
          "point_of_interest",
          "establishment"
        ],
        "poi_type": "hospital"
      }
    },
    {
      "type": "Feature",
      "geometry": {
        "type": "Point",
        "coordinates": [
          -70.67940229999999,
          19.4591717
        ]
      },
      "properties": {
        "name": "Dra. Maria Pilar Acosta",
        "address": "Avenida Juan Pablo Duarte 176, Santiago de los Caballeros",
        "place_id": "ChIJbd-warbFsY4RFYyxtLKaqus",
        "types": [
          "hospital",
          "health",
          "point_of_interest",
          "establishment"
        ],
        "poi_type": "hospital"
      }
    },
    {
      "type": "Feature",
      "geometry": {
        "type": "Point",
        "coordinates": [
          -70.6806476,
          19.4596484
        ]
      },
      "properties": {
        "name": "Torre c Union Medica",
        "address": "F859+VP5, Avenida Juan Pablo Duarte, Santiago de los Caballeros",
        "place_id": "ChIJfR79hUnFsY4RXk4lEahPF0E",
        "types": [
          "hospital",
          "health",
          "point_of_interest",
          "establishment"
        ],
        "poi_type": "hospital"
      }
    },
    {
      "type": "Feature",
      "geometry": {
        "type": "Point",
        "coordinates": [
          -70.6856912,
          19.4596616
        ]
      },
      "properties": {
        "name": "IMASS Centro Ambulatorio",
        "address": "Avenida Salvador Estrella Sadhalá 23, Santiago de los Caballeros",
        "place_id": "ChIJibIma4nFsY4RxnSIM2f6J9Q",
        "types": [
          "hospital",
          "health",
          "point_of_interest",
          "establishment"
        ],
        "poi_type": "hospital"
      }
    },
    {
      "type": "Feature",
      "geometry": {
        "type": "Point",
        "coordinates": [
          -70.67925559999999,
          19.4593488
        ]
      },
      "properties": {
        "name": "Dra.Yamel Lizardo Hemato- Oncóloga Pediatra",
        "address": "Clínica Union Médica del Norte, Avenida Juan Pablo Duarte 176, Santiago de los Caballeros",
        "place_id": "ChIJwZ0i7ZrFsY4RL-7y2qcTbTU",
        "types": [
          "hospital",
          "health",
          "point_of_interest",
          "establishment"
        ],
        "poi_type": "hospital"
      }
    },
    {
      "type": "Feature",
      "geometry": {
        "type": "Point",
        "coordinates": [
          -70.6791063,
          19.4593297
        ]
      },
      "properties": {
        "name": "Torre F Clínica Unión Medica",
        "address": "F85C+J97, Santiago de los Caballeros",
        "place_id": "ChIJ--kB9g_FsY4R7dVefrup3i8",
        "types": [
          "hospital",
          "health",
          "point_of_interest",
          "establishment"
        ],
        "poi_type": "hospital"
      }
    },
    {
      "type": "Feature",
      "geometry": {
        "type": "Point",
        "coordinates": [
          -70.6833006,
          19.4613431
        ]
      },
      "properties": {
        "name": "Plaza phoenix",
        "address": "F868+GMP, Calle Primera, Santiago de los Caballeros",
        "place_id": "ChIJtU7au6HFsY4REy5vxvC4PhM",
        "types": [
          "hospital",
          "health",
          "point_of_interest",
          "establishment"
        ],
        "poi_type": "hospital"
      }
    },
    {
      "type": "Feature",
      "geometry": {
        "type": "Point",
        "coordinates": [
          -70.67364690000001,
          19.4569749
        ]
      },
      "properties": {
        "name": "Centro Incluyo",
        "address": "Calle Santa Cruz de Tenerife (ant. Calle A), Santiago de los Caballeros",
        "place_id": "ChIJ25A0UovFsY4RFemRvaXbRSo",
        "types": [
          "hospital",
          "health",
          "point_of_interest",
          "establishment"
        ],
        "poi_type": "hospital"
      }
    },
    {
      "type": "Feature",
      "geometry": {
        "type": "Point",
        "coordinates": [
          -70.6785005,
          19.461042
        ]
      },
      "properties": {
        "name": "Vacunación Unión medica torre D",
        "address": "F86C+CH9, Calle E. León Jimenez, Santiago de los Caballeros",
        "place_id": "ChIJ_4FQPQDFsY4RtE8j2EUP_cM",
        "types": [
          "hospital",
          "health",
          "point_of_interest",
          "establishment"
        ],
        "poi_type": "hospital"
      }
    },
    {
      "type": "Feature",
      "geometry": {
        "type": "Point",
        "coordinates": [
          -70.67326729999999,
          19.4583877
        ]
      },
      "properties": {
        "name": "Instituto Microlobiologia y Diagnostico Ocular",
        "address": "Avenida Juan Pablo Duarte 176, Santiago de los Caballeros",
        "place_id": "ChIJJ3wzE4HFsY4RQBUEuJrjYL0",
        "types": [
          "hospital",
          "health",
          "point_of_interest",
          "establishment"
        ],
        "poi_type": "hospital"
      }
    },
    {
      "type": "Feature",
      "geometry": {
        "type": "Point",
        "coordinates": [
          -70.6871108,
          19.4625165
        ]
      },
      "properties": {
        "name": "Viudental Clinic",
        "address": "República del Líbano 17, Santiago de los Caballeros",
        "place_id": "ChIJpRSynIzFsY4RuOLUZv5H2eg",
        "types": [
          "dentist",
          "hospital",
          "health",
          "point_of_interest",
          "establishment"
        ],
        "poi_type": "hospital"
      }
    },
    {
      "type": "Feature",
      "geometry": {
        "type": "Point",
        "coordinates": [
          -70.6901728,
          19.4612571
        ]
      },
      "properties": {
        "name": "Rehalif centro de rehabilitacion integral",
        "address": "General Eusebio Manzueta 4, Santiago de los Caballeros",
        "place_id": "ChIJlxhAeIvFsY4RwvpZjNsdU8U",
        "types": [
          "hospital",
          "health",
          "point_of_interest",
          "establishment"
        ],
        "poi_type": "hospital"
      }
    },
    {
      "type": "Feature",
      "geometry": {
        "type": "Point",
        "coordinates": [
          -70.6766335,
          19.4616734
        ]
      },
      "properties": {
        "name": "Clínica Dental Dr. Marcos Tavarez Fanini",
        "address": "Calle E. León Jimenez 101, Santiago de los Caballeros",
        "place_id": "ChIJffV2vYjFsY4RM0ibCg7iUHY",
        "types": [
          "hospital",
          "health",
          "point_of_interest",
          "establishment"
        ],
        "poi_type": "hospital"
      }
    },
    {
      "type": "Feature",
      "geometry": {
        "type": "Point",
        "coordinates": [
          -70.6897025,
          19.4627076
        ]
      },
      "properties": {
        "name": "Jungla Vida U.S. Health & Recreational Grounds",
        "address": "Calle Club Rotario 15, Santiago de los Caballeros",
        "place_id": "ChIJYTwjgbDFsY4RbHv2hjVTOpc",
        "types": [
          "hospital",
          "health",
          "point_of_interest",
          "establishment"
        ],
        "poi_type": "hospital"
      }
    },
    {
      "type": "Feature",
      "geometry": {
        "type": "Point",
        "coordinates": [
          -70.6965756,
          19.4559621
        ]
      },
      "properties": {
        "name": "Clínica CENCARCI",
        "address": "Calle Mauricio Alvarez 4, Santiago de los Caballeros",
        "place_id": "ChIJhZrBgfXFsY4RzvLwNLQBC3g",
        "types": [
          "hospital",
          "health",
          "point_of_interest",
          "establishment"
        ],
        "poi_type": "hospital"
      }
    },
    {
      "type": "Feature",
      "geometry": {
        "type": "Point",
        "coordinates": [
          -70.6750417,
          19.4619948
        ]
      },
      "properties": {
        "name": "REPRODUCTIVE GROUP MC",
        "address": "Calle Estado de Israel Esq, Santiago de los Caballeros",
        "place_id": "ChIJWw0ENejFsY4RI-cWMc3sWmg",
        "types": [
          "hospital",
          "doctor",
          "health",
          "point_of_interest",
          "establishment"
        ],
        "poi_type": "hospital"
      }
    },
    {
      "type": "Feature",
      "geometry": {
        "type": "Point",
        "coordinates": [
          -70.6979375,
          19.4505625
        ]
      },
      "properties": {
        "name": "Clinica Del Dolor",
        "address": "frente a la cooperativa San José, Calle Santome 63, Santiago de los Caballeros",
        "place_id": "ChIJtZniGVzPsY4RVQXEtdFm_M4",
        "types": [
          "hospital",
          "health",
          "point_of_interest",
          "establishment"
        ],
        "poi_type": "hospital"
      }
    },
    {
      "type": "Feature",
      "geometry": {
        "type": "Point",
        "coordinates": [
          -70.6973643,
          19.4548742
        ]
      },
      "properties": {
        "name": "HOSPIDOLOR CENTER",
        "address": "Ulises Franco Bidó 12, Santiago de los Caballeros",
        "place_id": "ChIJxdxpQejPsY4RgnRkj-qdhbk",
        "types": [
          "hospital",
          "health",
          "point_of_interest",
          "establishment"
        ],
        "poi_type": "hospital"
      }
    },
    {
      "type": "Feature",
      "geometry": {
        "type": "Point",
        "coordinates": [
          -70.6960142,
          19.4579875
        ]
      },
      "properties": {
        "name": "Oncología & Especialidades",
        "address": "Avenida 27 de Febrero 33, Santiago de los Caballeros",
        "place_id": "ChIJcdObNwDFsY4R2Iggeic39cg",
        "types": [
          "hospital",
          "health",
          "point_of_interest",
          "establishment"
        ],
        "poi_type": "hospital"
      }
    },
    {
      "type": "Feature",
      "geometry": {
        "type": "Point",
        "coordinates": [
          -70.69605159999999,
          19.4579692
        ]
      },
      "properties": {
        "name": "Sociedad Dominicana de Oncología Médica",
        "address": "Avenida 27 de Febrero 33, Santiago de los Caballeros",
        "place_id": "ChIJ4R0UbnvFsY4R7zY0IWz05Z0",
        "types": [
          "hospital",
          "health",
          "point_of_interest",
          "establishment"
        ],
        "poi_type": "hospital"
      }
    },
    {
      "type": "Feature",
      "geometry": {
        "type": "Point",
        "coordinates": [
          -70.6889223,
          19.4639201
        ]
      },
      "properties": {
        "name": "Praxis Medica",
        "address": "F876+HC8, Avenida Padre Ramón Dubert, Santiago de los Caballeros",
        "place_id": "ChIJD3nQSIzFsY4RPYoMuemwnds",
        "types": [
          "hospital",
          "health",
          "point_of_interest",
          "establishment"
        ],
        "poi_type": "hospital"
      }
    },
    {
      "type": "Feature",
      "geometry": {
        "type": "Point",
        "coordinates": [
          -70.67448329999999,
          19.4629267
        ]
      },
      "properties": {
        "name": "Consultorio Dr. Francis Frias",
        "address": "F87G+56C, Calle E. León Jimenez, Santiago de los Caballeros",
        "place_id": "ChIJjfpcQDrFsY4RLzqJ6gS0lMk",
        "types": [
          "hospital",
          "health",
          "point_of_interest",
          "establishment"
        ],
        "poi_type": "hospital"
      }
    },
    {
      "type": "Feature",
      "geometry": {
        "type": "Point",
        "coordinates": [
          -70.69014790000001,
          19.4366266
        ]
      },
      "properties": {
        "name": "D’ Lauryestetic",
        "address": "Santiago de los Caballeros",
        "place_id": "ChIJdWYlU2rPsY4Rc5VCiPmwqOM",
        "types": [
          "hospital",
          "health",
          "point_of_interest",
          "establishment"
        ],
        "poi_type": "hospital"
      }
    },
    {
      "type": "Feature",
      "geometry": {
        "type": "Point",
        "coordinates": [
          -70.6930619,
          19.4622912
        ]
      },
      "properties": {
        "name": "Novopet (Centro Diagnóstico)",
        "address": "Aquiles Ramirez 12, Santiago de los Caballeros",
        "place_id": "ChIJE6AsTgDFsY4Rv4hw3_Khm-w",
        "types": [
          "hospital",
          "health",
          "point_of_interest",
          "establishment"
        ],
        "poi_type": "hospital"
      }
    },
    {
      "type": "Feature",
      "geometry": {
        "type": "Point",
        "coordinates": [
          -70.6929174,
          19.4629256
        ]
      },
      "properties": {
        "name": "Bella Forma & Odonthos",
        "address": "F874+5RG, Santiago de los Caballeros",
        "place_id": "ChIJrVvtsozFsY4RqJxSz8iKOEc",
        "types": [
          "hospital",
          "health",
          "point_of_interest",
          "establishment"
        ],
        "poi_type": "hospital"
      }
    }
  ]
}